<?xml version="1.0" encoding="UTF-8"?>
<ndm xmlns:xsi="http://www.w3.org/2001/XMLSchema-instance" xsi:noNamespaceSchemaLocation="https://sanaregistry.org/r/ndmxml_unqualified/ndmxml-2.0.0-master-2.0.xsd">
<omm id="CCSDS_OMM_VERS" version="2.0">
<header><CREATION_DATE/><ORIGINATOR/></header><body><segment><metadata><OBJECT_NAME>ONEWEB-0678</OBJECT_NAME><OBJECT_ID>2023-068E</OBJECT_ID><CENTER_NAME>EARTH</CENTER_NAME><REF_FRAME>TEME</REF_FRAME><TIME_SYSTEM>UTC</TIME_SYSTEM><MEAN_ELEMENT_THEORY>SGP4</MEAN_ELEMENT_THEORY></metadata><data><meanElements><EPOCH>2023-08-18T12:00:02.000160</EPOCH><MEAN_MOTION>13.92016033</MEAN_MOTION><ECCENTRICITY>.0009432</ECCENTRICITY><INCLINATION>87.2762</INCLINATION><RA_OF_ASC_NODE>106.3909</RA_OF_ASC_NODE><ARG_OF_PERICENTER>284.7165</ARG_OF_PERICENTER><MEAN_ANOMALY>159.1668</MEAN_ANOMALY></meanElements><tleParameters><EPHEMERIS_TYPE>0</EPHEMERIS_TYPE><CLASSIFICATION_TYPE>U</CLASSIFICATION_TYPE><NORAD_CAT_ID>56714</NORAD_CAT_ID><ELEMENT_SET_NO>999</ELEMENT_SET_NO><REV_AT_EPOCH>1391</REV_AT_EPOCH><BSTAR>-.73631E+0</BSTAR><MEAN_MOTION_DOT>-.8851E-2</MEAN_MOTION_DOT><MEAN_MOTION_DDOT>0</MEAN_MOTION_DDOT></tleParameters></data></segment></body></omm>
<omm id="CCSDS_OMM_VERS" version="2.0">
<header><CREATION_DATE/><ORIGINATOR/></header><body><segment><metadata><OBJECT_NAME>ONEWEB-0679</OBJECT_NAME><OBJECT_ID>2023-068F</OBJECT_ID><CENTER_NAME>EARTH</CENTER_NAME><REF_FRAME>TEME</REF_FRAME><TIME_SYSTEM>UTC</TIME_SYSTEM><MEAN_ELEMENT_THEORY>SGP4</MEAN_ELEMENT_THEORY></metadata><data><meanElements><EPOCH>2023-08-17T17:30:24.142176</EPOCH><MEAN_MOTION>14.78404204</MEAN_MOTION><ECCENTRICITY>.0012876</ECCENTRICITY><INCLINATION>86.7206</INCLINATION><RA_OF_ASC_NODE>103.7690</RA_OF_ASC_NODE><ARG_OF_PERICENTER>273.2536</ARG_OF_PERICENTER><MEAN_ANOMALY>86.7212</MEAN_ANOMALY></meanElements><tleParameters><EPHEMERIS_TYPE>0</EPHEMERIS_TYPE><CLASSIFICATION_TYPE>U</CLASSIFICATION_TYPE><NORAD_CAT_ID>56715</NORAD_CAT_ID><ELEMENT_SET_NO>999</ELEMENT_SET_NO><REV_AT_EPOCH>1402</REV_AT_EPOCH><BSTAR>.25416E-3</BSTAR><MEAN_MOTION_DOT>.1878E-4</MEAN_MOTION_DOT><MEAN_MOTION_DDOT>0</MEAN_MOTION_DDOT></tleParameters></data></segment></body></omm>
<omm id="CCSDS_OMM_VERS" version="2.0">
<header><CREATION_DATE/><ORIGINATOR/></header><body><segment><metadata><OBJECT_NAME>ONEWEB-0680</OBJECT_NAME><OBJECT_ID>2023-068G</OBJECT_ID><CENTER_NAME>EARTH</CENTER_NAME><REF_FRAME>TEME</REF_FRAME><TIME_SYSTEM>UTC</TIME_SYSTEM><MEAN_ELEMENT_THEORY>SGP4</MEAN_ELEMENT_THEORY></metadata><data><meanElements><EPOCH>2023-08-18T03:48:06.077088</EPOCH><MEAN_MOTION>14.78017022</MEAN_MOTION><ECCENTRICITY>.0011997</ECCENTRICITY><INCLINATION>86.7186</INCLINATION><RA_OF_ASC_NODE>103.5912</RA_OF_ASC_NODE><ARG_OF_PERICENTER>274.4984</ARG_OF_PERICENTER><MEAN_ANOMALY>85.4866</MEAN_ANOMALY></meanElements><tleParameters><EPHEMERIS_TYPE>0</EPHEMERIS_TYPE><CLASSIFICATION_TYPE>U</CLASSIFICATION_TYPE><NORAD_CAT_ID>56716</NORAD_CAT_ID><ELEMENT_SET_NO>999</ELEMENT_SET_NO><REV_AT_EPOCH>1408</REV_AT_EPOCH><BSTAR>.24266E-3</BSTAR><MEAN_MOTION_DOT>.1777E-4</MEAN_MOTION_DOT><MEAN_MOTION_DDOT>0</MEAN_MOTION_DDOT></tleParameters></data></segment></body></omm>
<omm id="CCSDS_OMM_VERS" version="2.0">
<header><CREATION_DATE/><ORIGINATOR/></header><body><segment><metadata><OBJECT_NAME>ONEWEB-0681</OBJECT_NAME><OBJECT_ID>2023-068H</OBJECT_ID><CENTER_NAME>EARTH</CENTER_NAME><REF_FRAME>TEME</REF_FRAME><TIME_SYSTEM>UTC</TIME_SYSTEM><MEAN_ELEMENT_THEORY>SGP4</MEAN_ELEMENT_THEORY></metadata><data><meanElements><EPOCH>2023-08-18T04:21:24.628320</EPOCH><MEAN_MOTION>14.77669744</MEAN_MOTION><ECCENTRICITY>.0009986</ECCENTRICITY><INCLINATION>86.7192</INCLINATION><RA_OF_ASC_NODE>103.6157</RA_OF_ASC_NODE><ARG_OF_PERICENTER>277.4374</ARG_OF_PERICENTER><MEAN_ANOMALY>82.5711</MEAN_ANOMALY></meanElements><tleParameters><EPHEMERIS_TYPE>0</EPHEMERIS_TYPE><CLASSIFICATION_TYPE>U</CLASSIFICATION_TYPE><NORAD_CAT_ID>56717</NORAD_CAT_ID><ELEMENT_SET_NO>999</ELEMENT_SET_NO><REV_AT_EPOCH>1408</REV_AT_EPOCH><BSTAR>.26777E-3</BSTAR><MEAN_MOTION_DOT>.1942E-4</MEAN_MOTION_DOT><MEAN_MOTION_DDOT>0</MEAN_MOTION_DDOT></tleParameters></data></segment></body></omm>
<omm id="CCSDS_OMM_VERS" version="2.0">
<header><CREATION_DATE/><ORIGINATOR/></header><body><segment><metadata><OBJECT_NAME>ONEWEB-0682</OBJECT_NAME><OBJECT_ID>2023-068J</OBJECT_ID><CENTER_NAME>EARTH</CENTER_NAME><REF_FRAME>TEME</REF_FRAME><TIME_SYSTEM>UTC</TIME_SYSTEM><MEAN_ELEMENT_THEORY>SGP4</MEAN_ELEMENT_THEORY></metadata><data><meanElements><EPOCH>2023-08-18T04:00:00.999936</EPOCH><MEAN_MOTION>14.12512381</MEAN_MOTION><ECCENTRICITY>.0009366</ECCENTRICITY><INCLINATION>87.2884</INCLINATION><RA_OF_ASC_NODE>106.2600</RA_OF_ASC_NODE><ARG_OF_PERICENTER>287.4294</ARG_OF_PERICENTER><MEAN_ANOMALY>330.2600</MEAN_ANOMALY></meanElements><tleParameters><EPHEMERIS_TYPE>0</EPHEMERIS_TYPE><CLASSIFICATION_TYPE>U</CLASSIFICATION_TYPE><NORAD_CAT_ID>56718</NORAD_CAT_ID><ELEMENT_SET_NO>999</ELEMENT_SET_NO><REV_AT_EPOCH>1391</REV_AT_EPOCH><BSTAR>-.50458E+0</BSTAR><MEAN_MOTION_DOT>-.8828E-2</MEAN_MOTION_DOT><MEAN_MOTION_DDOT>0</MEAN_MOTION_DDOT></tleParameters></data></segment></body></omm>
<omm id="CCSDS_OMM_VERS" version="2.0">
<header><CREATION_DATE/><ORIGINATOR/></header><body><segment><metadata><OBJECT_NAME>ONEWEB-0683</OBJECT_NAME><OBJECT_ID>2023-068K</OBJECT_ID><CENTER_NAME>EARTH</CENTER_NAME><REF_FRAME>TEME</REF_FRAME><TIME_SYSTEM>UTC</TIME_SYSTEM><MEAN_ELEMENT_THEORY>SGP4</MEAN_ELEMENT_THEORY></metadata><data><meanElements><EPOCH>2023-08-18T20:00:01.000224</EPOCH><MEAN_MOTION>14.05192059</MEAN_MOTION><ECCENTRICITY>.0009817</ECCENTRICITY><INCLINATION>87.2575</INCLINATION><RA_OF_ASC_NODE>106.0414</RA_OF_ASC_NODE><ARG_OF_PERICENTER>288.4037</ARG_OF_PERICENTER><MEAN_ANOMALY>222.3526</MEAN_ANOMALY></meanElements><tleParameters><EPHEMERIS_TYPE>0</EPHEMERIS_TYPE><CLASSIFICATION_TYPE>U</CLASSIFICATION_TYPE><NORAD_CAT_ID>56719</NORAD_CAT_ID><ELEMENT_SET_NO>999</ELEMENT_SET_NO><REV_AT_EPOCH>1399</REV_AT_EPOCH><BSTAR>-.55285E+0</BSTAR><MEAN_MOTION_DOT>-.841238E-2</MEAN_MOTION_DOT><MEAN_MOTION_DDOT>0</MEAN_MOTION_DDOT></tleParameters></data></segment></body></omm>
<omm id="CCSDS_OMM_VERS" version="2.0">
<header><CREATION_DATE/><ORIGINATOR/></header><body><segment><metadata><OBJECT_NAME>ONEWEB-0684</OBJECT_NAME><OBJECT_ID>2023-068L</OBJECT_ID><CENTER_NAME>EARTH</CENTER_NAME><REF_FRAME>TEME</REF_FRAME><TIME_SYSTEM>UTC</TIME_SYSTEM><MEAN_ELEMENT_THEORY>SGP4</MEAN_ELEMENT_THEORY></metadata><data><meanElements><EPOCH>2023-08-18T04:00:00.999936</EPOCH><MEAN_MOTION>13.86387136</MEAN_MOTION><ECCENTRICITY>.0011506</ECCENTRICITY><INCLINATION>87.3373</INCLINATION><RA_OF_ASC_NODE>106.6162</RA_OF_ASC_NODE><ARG_OF_PERICENTER>298.4230</ARG_OF_PERICENTER><MEAN_ANOMALY>298.6888</MEAN_ANOMALY></meanElements><tleParameters><EPHEMERIS_TYPE>0</EPHEMERIS_TYPE><CLASSIFICATION_TYPE>U</CLASSIFICATION_TYPE><NORAD_CAT_ID>56720</NORAD_CAT_ID><ELEMENT_SET_NO>999</ELEMENT_SET_NO><REV_AT_EPOCH>1385</REV_AT_EPOCH><BSTAR>-.84306E+0</BSTAR><MEAN_MOTION_DOT>-.926016E-2</MEAN_MOTION_DOT><MEAN_MOTION_DDOT>0</MEAN_MOTION_DDOT></tleParameters></data></segment></body></omm>
<omm id="CCSDS_OMM_VERS" version="2.0">
<header><CREATION_DATE/><ORIGINATOR/></header><body><segment><metadata><OBJECT_NAME>ONEWEB-0686</OBJECT_NAME><OBJECT_ID>2023-068M</OBJECT_ID><CENTER_NAME>EARTH</CENTER_NAME><REF_FRAME>TEME</REF_FRAME><TIME_SYSTEM>UTC</TIME_SYSTEM><MEAN_ELEMENT_THEORY>SGP4</MEAN_ELEMENT_THEORY></metadata><data><meanElements><EPOCH>2023-08-18T01:59:40.572672</EPOCH><MEAN_MOTION>14.78116730</MEAN_MOTION><ECCENTRICITY>.0012573</ECCENTRICITY><INCLINATION>86.7182</INCLINATION><RA_OF_ASC_NODE>103.6075</RA_OF_ASC_NODE><ARG_OF_PERICENTER>272.9642</ARG_OF_PERICENTER><MEAN_ANOMALY>87.0140</MEAN_ANOMALY></meanElements><tleParameters><EPHEMERIS_TYPE>0</EPHEMERIS_TYPE><CLASSIFICATION_TYPE>U</CLASSIFICATION_TYPE><NORAD_CAT_ID>56721</NORAD_CAT_ID><ELEMENT_SET_NO>999</ELEMENT_SET_NO><REV_AT_EPOCH>1407</REV_AT_EPOCH><BSTAR>.23005E-3</BSTAR><MEAN_MOTION_DOT>.169E-4</MEAN_MOTION_DOT><MEAN_MOTION_DDOT>0</MEAN_MOTION_DDOT></tleParameters></data></segment></body></omm>

</ndm>
