ONEWEB-0678             
1 56714U 23068E   23230.50002315 -.00885100  00000+0 -73631+0 0  9990
2 56714  87.2762 106.3909 0009432 284.7165 159.1668 13.92016033 13914
ONEWEB-0679             
1 56715U 23068F   23229.72944609  .00001878  00000+0  25416-3 0  9996
2 56715  86.7206 103.7690 0012876 273.2536  86.7212 14.78404204 14020
ONEWEB-0680             
1 56716U 23068G   23230.15840367  .00001777  00000+0  24266-3 0  9992
2 56716  86.7186 103.5912 0011997 274.4984  85.4866 14.78017022 14081
ONEWEB-0681             
1 56717U 23068H   23230.18153505  .00001942  00000+0  26777-3 0  9990
2 56717  86.7192 103.6157 0009986 277.4374  82.5711 14.77669744 14082
ONEWEB-0682             
1 56718U 23068J   23230.16667824 -.00882800  00000+0 -50458+0 0  9994
2 56718  87.2884 106.2600 0009366 287.4294 330.2600 14.12512381 13917
ONEWEB-0683             
1 56719U 23068K   23230.83334491 -.00841238  00000+0 -55285+0 0  9993
2 56719  87.2575 106.0414 0009817 288.4037 222.3526 14.05192059 13997
ONEWEB-0684             
1 56720U 23068L   23230.16667824 -.00926016  00000+0 -84306+0 0  9994
2 56720  87.3373 106.6162 0011506 298.4230 298.6888 13.86387136 13858
ONEWEB-0686             
1 56721U 23068M   23230.08310848  .00001690  00000+0  23005-3 0  9990
2 56721  86.7182 103.6075 0012573 272.9642  87.0140 14.78116730 14077
